0 FENGYUN 1C DEB
1 30630U 99025ANM 13285.68099323  .00001028  00000-0  59987-3 0  2362
2 30630 099.0496 354.0766 0029616 042.3970 109.0285 14.10524237343915
0 FENGYUN 1C DEB
1 30630U 99025ANM 13286.74009090  .00001070  00000-0  62371-3 0  2371
2 30630 099.0492 355.1427 0029535 039.3831 087.0498 14.10526658344066
0 FENGYUN 1C DEB
1 30630U 99025ANM 13288.72631346  .00001055  00000-0  61496-3 0  2387
2 30630 099.0487 357.1421 0029488 033.8618 092.8349 14.10533628344340
0 FENGYUN 1C DEB
1 30630U 99025ANM 13290.00253708  .00000924  00000-0  54211-3 0  2395
2 30630 099.0484 358.4268 0029440 030.3179 093.3588 14.10537289344520
0 FENGYUN 1C DEB
1 30630U 99025ANM 13294.68960916  .00001325  00000-0  76583-3 0  2414
2 30630 099.0479 003.1440 0029206 017.1485 134.0852 14.10545456345188
0 FENGYUN 1C DEB
1 30630U 99025ANM 13295.74928916  .00001346  00000-0  77783-3 0  2423
2 30630 099.0479 004.2103 0029149 014.1772 115.1028 14.10547723345339
